ORBCOMM FM24 [-]        
1 25478U 98053D   24012.67331942  .00001433  00000+0  54649-3 0  9996
2 25478  45.0073 215.7555 0001544 126.1092 233.9898 14.35102876322457
ORBCOMM FM25 [-]        
1 25479U 98053E   24012.98625417  .00001466  00000+0  55832-3 0  9995
2 25479  45.0065 212.5163 0003961 151.5587 208.5477 14.35085093322794
ORBCOMM FM26 [-]        
1 25480U 98053F   24013.50730263  .00001438  00000+0  55370-3 0  9998
2 25480  45.0061 203.7149 0005944 178.6376 181.4488 14.34610979322918
ORBCOMM FM27 [+]        
1 25481U 98053G   24012.90295438  .00001521  00000+0  57767-3 0  9997
2 25481  45.0049 213.1699 0000222  43.1411 316.9453 14.35064013322718
ORBCOMM FM28 [-]        
1 25482U 98053H   24013.41431380  .00002077  00000+0  76335-3 0  9992
2 25482  45.0056 149.6338 0005152 207.5284 152.5291 14.35535702323624
ORBCOMM FM30 [-]        
1 25980U 99065A   24013.41110237  .00001779  00000+0  67102-3 0  9994
2 25980  45.0336  29.5826 0008137 280.7417  79.2514 14.34753872260120
ORBCOMM FM31 [-]        
1 25981U 99065B   24012.40256773  .00001629  00000+0  61891-3 0  9992
2 25981  45.0250  28.1215 0005235 291.9960  68.0331 14.34762972259005
ORBCOMM FM32 [+]        
1 25982U 99065C   24012.99535408  .00001651  00000+0  63906-3 0  9996
2 25982  45.0178  38.2695 0007397 296.9435  63.0656 14.33742045259869
